DELTA 2 R/B(1)          
1 20453U 90008B   26127.45001979  .00051687  00000+0  47180-3 0  9993
2 20453  35.6002 146.9810 0070676  91.3648 269.5188 15.63476420935316
COSMOS 2058             
1 20465U 90010A   26127.56439139  .00003250  00000+0  18862-3 0  9992
2 20465  82.4677 349.4148 0011121 124.3851 235.8433 15.11773915951133
SL-14 R/B               
1 20466U 90010B   26127.49935088  .00000355  00000+0  40015-4 0  9998
2 20466  82.5044 212.1508 0021324 105.2089 255.1486 14.83621749937206
SL-14 R/B               
1 20511U 90018B   26127.57356343  .00000269  00000+0  30817-4 0  9990
2 20511  82.5216 168.0695 0014729 256.7717 103.1854 14.82191752931306
HST                     
1 20580U 90037B   26127.71581694  .00005876  00000+0  18705-3 0  9992
2 20580  28.4762 357.0772 0002154  56.1313 303.9488 15.30317018782368
SL-16 R/B               
1 20625U 90046B   26127.58336181  .00000193  00000+0  12405-3 0  9994
2 20625  70.9986 174.2246 0015620 221.7290 138.2642 14.15022141856724
COSMOS 2084             
1 20663U 90055A   26127.75794421  .00001617  00000+0  12428-3 0  9997
2 20663  62.7872 134.0624 0008064 219.5629 140.4884 15.05952344945211
SL-6 R/B(2)             
1 20666U 90055D   26127.75603174  .00001780  00000+0  14178-3 0  9999
2 20666  62.7838  52.9422 0034244 359.0171   1.0855 15.03859998947076
SL-8 R/B                
1 20775U 90078B   26127.60894222  .00019882  00000+0  57298-3 0  9997
2 20775  82.9041 198.2612 0355194 174.9983 185.4951 14.90951548818077
SL-8 R/B                
1 21088U 91006B   26127.77298867  .00000017  00000+0  22312-5 0  9999
2 21088  82.9394 126.1015 0021286 227.1674 306.4192 13.77506156772204
OKEAN-3                 
1 21397U 91039A   26127.52111091  .00002259  00000+0  15631-3 0  9998
2 21397  82.5156 279.8124 0015387 128.1954 232.0662 15.05133824873885
COSMOS 2151             
1 21422U 91042A   26127.77797360  .00001300  00000+0  10139-3 0  9991
2 21422  82.4988  26.6728 0011225 213.8682 146.1827 15.00332376872055
SL-14 R/B               
1 21423U 91042B   26127.57163672  .00000280  00000+0  32318-4 0  9993
2 21423  82.4930 164.9844 0018196  51.2585 309.0252 14.81877436861798
ERS-1                   
1 21574U 91050A   26127.78066561  .00000244  00000+0  92576-4 0  9993
2 21574  98.7822 147.4878 0032437  29.0323 331.2659 14.39491857824233
ARIANE 40 R/B           
1 21610U 91050F   26127.76057642  .00000239  00000+0  84089-4 0  9996
2 21610  98.1906 177.7459 0001882 240.6459 119.4544 14.42933045827510
INTERCOSMOS 25          
1 21819U 91086A   26127.50665148  .00000406  00000+0  77502-4 0  9992
2 21819  82.6011 274.4286 1485472 350.1563   7.3105 12.12148177503815
SL-8 R/B                
1 21876U 92008B   26127.77875958  .00000075  00000+0  61558-4 0  9997
2 21876  82.9288 223.8275 0033810 331.5849 142.7585 13.75972148717543
SL-8 R/B                
1 21938U 92020B   26127.54495985 -.00000017  00000+0 -33675-4 0  9990
2 21938  82.9272 110.0456 0030064 131.5338 322.7841 13.75547570709220
USA 81                  
1 21949U 92023A   26127.61833497  .00000175  00000+0  57564-4 0  9993
2 21949  85.0047  97.4210 0001766 111.4757 248.6624 14.32386434103228
COSMOS 2219             
1 22219U 92076A   26127.72870925  .00000092  00000+0  72694-4 0  9990
2 22219  71.0614 254.6465 0016033 112.3941 247.8882 14.14103195726725
SL-16 R/B               
1 22220U 92076B   26127.78024247  .00000203  00000+0  12504-3 0  9993
2 22220  71.0007  63.8991 0012831 354.7977  24.9250 14.16869039730209
COSMOS 2221             
1 22236U 92080A   26127.75240700  .00001473  00000+0  12741-3 0  9999
2 22236  82.5054 222.4962 0013977   0.5359 359.5875 14.96431645789624
SL-16 R/B               
1 22285U 92093B   26127.74881721 -.00000126  00000+0 -40207-4 0  9995
2 22285  71.0224 240.2809 0006016 235.9373 124.1179 14.15461626721514
COSMOS 2228             
1 22286U 92094A   26127.72893112  .00001406  00000+0  11808-3 0  9996
2 22286  82.5190 180.7903 0019521 102.8210 257.5195 14.97452976784891
SL-16 R/B               
1 22566U 93016B   26127.30052942  .00000055  00000+0  52783-4 0  9991
2 22566  71.0046  92.0817 0012159 239.7677 120.2242 14.15307513710468
COSMOS 2242             
1 22626U 93024A   26127.73711593  .00001485  00000+0  12712-3 0  9993
2 22626  82.5207 210.2341 0017780 106.0363 254.2819 14.96788981789229
SL-16 R/B               
1 22803U 93059B   26127.76492796 -.00000124  00000+0 -37592-4 0  9997
2 22803  70.9907 246.5448 0015202 124.7432 235.5126 14.17242685687909
ARIANE 40 R/B           
1 22830U 93061H   26127.77460873  .00000174  00000+0  79341-4 0  9993
2 22830  98.4832 195.4675 0011946 108.1772 252.0714 14.32890342702562
COSMOS 2278             
1 23087U 94023A   26127.79327986 -.00000146  00000+0 -51369-4 0  9997
2 23087  71.0552  51.4397 0011131 292.5897  67.4047 14.14388976653160
SL-16 R/B               
1 23088U 94023B   26127.74247119  .00000290  00000+0  17413-3 0  9991
2 23088  70.9998 306.8702 0004670 230.0165 130.0548 14.15020518654446
SL-16 R/B               
1 23343U 94074B   26127.57826051  .00000354  00000+0  53992-4 0  9994
2 23343  97.7021 155.9862 0007455  40.2135  76.5847 14.79467704695955
SL-16 R/B               
1 23405U 94077B   26127.70102152 -.00000245  00000+0 -10084-3 0  9995
2 23405  70.9832 228.3365 0000678  13.1743 346.9398 14.15570302624589
ARIANE 40+ R/B          
1 23561U 95021B   26127.75751736  .00000221  00000+0  84345-4 0  9995
2 23561  98.4421 198.4135 0005983 334.6382 134.4660 14.39810885627749
SL-16 R/B               
1 23705U 95058B   26127.49887834 -.00000020  00000+0  14009-4 0  9993
2 23705  71.0218  56.7842 0011580  20.5710 339.5877 14.15501900576174
SL-16 R/B               
1 24298U 96051B   26127.73479176  .00000122  00000+0  92465-4 0  9992
2 24298  70.7626  50.2636 0012706  44.1439 316.0693 14.12431713529986
ORBVIEW 2 (SEASTAR)     
1 24883U 97037A   26127.73350863  .00000222  00000+0  93235-4 0  9995
2 24883  98.8657 293.6389 0001307 223.2687 136.8395 14.35532407516945
SL-16 R/B               
1 25400U 98043G   26127.80889203  .00000045  00000+0  37867-4 0  9994
2 25400  98.8338  81.6272 0009417 197.2949 162.7911 14.26062082447418
SL-16 R/B               
1 25407U 98045B   26127.76347000  .00000280  00000+0  16569-3 0  9998
2 25407  71.0121  57.3410 0009482 289.3286  70.6811 14.16200013435466
ISS (ZARYA)             
1 25544U 98067A   26127.42525608  .00005474  00000+0  10695-3 0  9993
2 25544  51.6306 141.8725 0007388  32.8924 327.2523 15.49130994565437
CZ-4B R/B               
1 25732U 99025C   26127.59109485  .00000033  00000+0  36435-4 0  9993
2 25732  98.6518 170.4445 0037282 173.7370 339.0331 14.18276371396519
OKEAN-O                 
1 25860U 99039A   26127.72681416  .00000513  00000+0  74010-4 0  9998
2 25860  97.9341 186.9842 0001833 106.1608 253.9806 14.80418602443122
SL-16 R/B               
1 25861U 99039B   26127.58381772  .00000435  00000+0  61827-4 0  9990
2 25861  97.9864 186.5575 0016085  68.7111 291.5817 14.81804369445581
DELTA 2 R/B             
1 25876U 99041E   26127.54826587  .00000471  00000+0  11488-3 0  9990
2 25876  51.7622  66.1377 0502178 161.9965 199.9488 14.11947303371342
HELIOS 1B               
1 25977U 99064A   26127.49382929  .00001270  00000+0  14514-3 0  9999
2 25977  98.1642  31.4534 0000869 135.3556 224.7729 14.87898005694005
TERRA                   
1 25994U 99068A   26127.76405751  .00000333  00000+0  76796-4 0  9991
2 25994  97.9487 178.9069 0002512  31.1993 106.9638 14.61070847403706
SL-16 R/B               
1 26070U 00006B   26127.58227632 -.00000153  00000+0 -53687-4 0  9997
2 26070  71.0033 334.0061 0014248  92.0596 268.2159 14.15834591356893
TITAN 4B R/B            
1 26474U 00047B   26127.72295690  .00002265  00000+0  14451-3 0  9994
2 26474  67.9889 234.4482 0043579 328.8401  31.0165 15.09987719401820
ENVISAT                 
1 27386U 02009A   26127.84627743  .00000087  00000+0  42121-4 0  9994
2 27386  98.3810  80.0708 0001159  90.5096 300.0651 14.39055208267686
IDEFIX & ARIANE 42P R/B 
1 27422U 02021B   26127.78712394  .00000219  00000+0  99903-4 0  9996
2 27422  98.5928  65.7123 0012272  19.1754 340.9889 14.31062590252477
AQUA                    
1 27424U 02022A   26127.81471785  .00000735  00000+0  15608-3 0  9991
2 27424  98.4255  96.2994 0002129  82.8523 337.0993 14.62095758277372
CZ-4B R/B               
1 27432U 02024C   26127.79112366  .00000028  00000+0  37564-4 0  9997
2 27432  98.8729 180.8665 0049577 214.0802 257.6307 14.14557691237595
MIDORI II (ADEOS-II)    
1 27597U 02056A   26127.74680328  .00000254  00000+0  11777-3 0  9995
2 27597  98.7854  86.6701 0001379 131.1507 228.9793 14.29326608218731
H-2A R/B                
1 27601U 02056E   26127.62835213  .00000276  00000+0  11141-3 0  9992
2 27601  98.3289  85.7874 0069965 347.1134 186.0038 14.33802116222555
CZ-4B R/B               
1 28059U 03049C   26127.72908895  .00000333  00000+0  87748-4 0  9992
2 28059  98.6899 124.9677 0049097  52.4500 308.1141 14.55070611195188
CZ-2C R/B               
1 28222U 04012C   26127.75935600  .00059967  00000+0  45180-3 0  9992
2 28222  97.7111 198.9555 0011951  95.6721 264.5904 15.72245701213531
SL-16 R/B               
1 28353U 04021B   26127.36046106 -.00000036  00000+0  61976-5 0  9995
2 28353  70.9978 109.3684 0006868 297.2616  62.7806 14.14601558131138
CZ-4B R/B               
1 28415U 04035C   26127.32989235  .00006071  00000+0  20822-3 0  9991
2 28415  97.3400 160.8772 0033070 119.1927 241.2628 15.30005026188878
CZ-2C R/B               
1 28480U 04046B   26127.59420535  .00000138  00000+0  66763-4 0  9990
2 28480  98.1964  38.9063 0139035 341.2161  18.3919 14.27015276116902
ARIANE 5 R/B            
1 28499U 04049H   26127.71297638  .00000965  00000+0  11221-3 0  9999
2 28499  98.2700 298.4105 0084502 159.0011 201.4707 14.85381833154550
